1999 RW214,e,1.3634,0.4150,274.5123,43.09985,0.0034833,0.02839354,116.5103,11/21.0/2025,2000,H 7.3,0.15
# From MPO955370
1999 RX214,e,4.8204,3.8057,266.6611,46.27376,0.0031311,0.16799974,105.8399,11/21.0/2025,2000,H 6.78,0.15
# From MPC 38082
1999 RF215,e,3.6750,327.5791,0.1957,43.96413,0.0033811,0.00000000,0.0000,10/09.0/1999,2000,H 7.4,0.15
# From MPEC 2025-X23
1999 RG215,e,0.2424,293.0980,113.8799,46.53490,0.0031048,0.07464735,327.9508,11/21.0/2025,2000,H 7.30,0.15
# From MPO 68550
1999 RR215,e,1.1803,185.7974,151.1912,44.35354,0.0033367,0.10129469,60.4153,11/21.0/2025,2000,H 8.1,0.15
# From MPC 38805
1999 RT215,e,21.9068,192.8981,179.8489,43.08942,0.0034846,0.00000000,0.0000,10/09.0/1999,2000,H 7.1,0.15
# From MPO315178
1999 RV215,e,21.9955,351.8602,27.7134,44.96185,0.0032692,0.18718982,29.4748,11/21.0/2025,2000,H 8.4,0.15
# From MPO713656
1999 RX215,e,0.8918,99.2563,187.1425,46.96074,0.0030627,0.13916541,57.1300,11/21.0/2025,2000,H 7.43,0.15
# From MPC 39551
1999 RC216,e,0.5883,190.5376,344.2864,44.40277,0.0033311,0.08068122,180.1491,10/09.0/1999,2000,H 7.3,0.15
# From MPO 14375
1999 RK257,e,17.9214,190.6425,144.9001,43.19633,0.0034716,0.05173288,359.9547,08/30.0/1999,2000,H 8.3,0.15
# From MPO 14375
1999 SA28,e,11.1115,262.7027,73.9026,39.23393,0.0040106,0.18496725,359.9314,08/30.0/1999,2000,H 7.3,0.15
# From MPO906365
1999 TR11,e,17.1191,54.6244,347.5203,39.74045,0.0039342,0.24982915,44.6266,11/21.0/2025,2000,H 8.43,0.15
# From MPO 4952
2000 AB255,e,20.3884,159.0340,279.0407,43.08393,0.0034852,0.09982141,0.0000,12/28.0/1999,2000,H 8.9,0.15
# From MPO 4952
2000 AC255,e,34.7541,111.0482,141.3968,46.80664,0.0030778,0.15972185,181.1215,12/28.0/1999,2000,H 8.9,0.15
# From MPO 4952
2000 AD255,e,33.0369,113.6117,320.3970,42.17398,0.0035986,0.04236789,0.0000,12/28.0/1999,2000,H 8.9,0.15
# From MPO 4952
2000 AE255,e,35.9383,43.7746,56.5717,44.05129,0.0033711,0.06241479,0.0000,12/28.0/1999,2000,H 8.3,0.15
# From MPO686039
2000 AF255,e,30.8775,23.5490,198.0707,48.87593,0.0028844,0.24768982,288.5884,11/21.0/2025,2000,H 5.90,0.15
# From MPO918379
2000 CL104,e,1.2448,140.9185,308.8197,44.45771,0.0033249,0.07931503,84.4174,11/21.0/2025,2000,H 6.50,0.15
# From MPEC 2024-Q28
2000 CM104,e,0.9104,149.0374,298.8473,44.38573,0.0033330,0.08621407,85.6860,11/21.0/2025,2000,H 7.80,0.15
# From MPC 39601
2000 CN104,e,31.5192,150.5423,0.2571,42.92739,0.0035043,0.00000000,0.0000,02/06.0/2000,2000,H 6.9,0.15
# From MPO739986
2000 CK105,e,8.1199,326.4936,352.6878,39.49357,0.0039711,0.22926634,205.5719,11/21.0/2025,2000,H 6.37,0.15
# From MPEC 2024-F62
2000 CL105,e,4.1716,113.5779,201.0297,43.11200,0.0034818,0.04335572,212.5987,11/21.0/2025,2000,H 6.62,0.15
# From MPEC 2024-S84
2000 CS105,e,5.3109,16.7177,207.2646,39.09987,0.0040313,0.01612956,335.9069,11/21.0/2025,2000,H 7.82,0.15
# From MPC 40459
2000 CY105,e,10.0216,132.8240,175.7702,45.53251,0.0032079,0.09131089,180.0669,02/06.0/2000,2000,H 6.6,0.15
# From MPEC 2024-H69
2000 CN114,e,1.5520,82.4399,321.2841,44.00640,0.0033762,0.04318458,121.0403,11/21.0/2025,2000,H 7.21,0.15
# From MPO 710
2000 CO114,e,32.5147,333.2254,351.9985,46.14288,0.0031445,0.06124088,180.0512,02/26.0/2000,2000,H 6.9,0.15
# From MPO 710
2000 CP114,e,31.0007,127.0393,260.1066,39.47647,0.0039737,0.16568527,86.9643,02/26.0/2000,2000,H 8.0,0.15
# From MPO339366
2000 FB8,e,4.5822,1.7143,67.1682,39.24246,0.0040093,0.29890708,119.9258,11/21.0/2025,2000,H 8.2,0.15
# From MPO339366
2000 FC8,e,0.7131,332.3691,31.9372,43.84884,0.0033944,0.06468222,212.9623,11/21.0/2025,2000,H 8.0,0.15
# From MPO450539
2000 FH8,e,2.0731,8.7895,25.7605,43.39303,0.0034481,0.03521560,181.8936,11/21.0/2025,2000,H 7.2,0.15
# From MPO419337
2000 FR53,e,2.5121,39.4484,86.2974,44.33855,0.0033383,0.08869792,102.5198,11/21.0/2025,2000,H 7.6,0.15
# From MPO361092
2000 FS53,e,2.0904,26.0200,123.4840,42.88386,0.0035096,0.03658607,86.6484,11/21.0/2025,2000,H 7.8,0.15
# From MPO342203
2000 FT53,e,12.0027,35.3597,245.0681,44.90036,0.0032759,0.15024377,339.5051,11/21.0/2025,2000,H 8.3,0.15
# From MPO676500
2000 FU53,e,5.4806,31.9033,178.5333,41.16337,0.0037320,0.04390533,31.7650,11/21.0/2025,2000,H 8.53,0.15
# From MPO 749
2000 FW53,e,6.6617,50.2826,336.9762,47.19969,0.0030395,0.14669162,179.1442,03/17.0/2000,2000,H 7.2,0.15
# From MPO703096
2000 GV146,e,3.6809,99.8308,60.4302,43.86600,0.0033924,0.06849184,71.0113,11/21.0/2025,2000,H 7.53,0.15
# From MPC 40530
2000 GW146,e,28.9755,8.9131,179.9571,41.20546,0.0037262,0.00000000,0.0000,03/17.0/2000,2000,H 8.1,0.15
# From MPO339367
2000 GX146,e,0.6795,344.7404,42.9198,43.97376,0.0033800,0.01556596,192.7275,11/21.0/2025,2000,H 7.8,0.15
# From MPO339367
2000 GY146,e,2.7001,13.4753,15.9211,43.84596,0.0033948,0.02310118,191.0359,11/21.0/2025,2000,H 7.9,0.15
# From MPO676500
2000 GZ146,e,1.6200,216.3717,20.8187,92.28608,0.0011117,0.56171328,4.7136,11/21.0/2025,2000,H 7.96,0.15
# From MPO 1618
2000 GM147,e,18.0769,96.1232,173.8260,39.58196,0.0039578,0.19165357,292.9686,04/06.0/2000,2000,H 7.9,0.15
# From MPO331226
2000 JF81,e,1.7424,179.9219,130.3840,45.88974,0.0031705,0.09854509,313.7953,11/21.0/2025,2000,H 7.2,0.15
# From MPO869192
2000 JH81,e,10.2093,223.1799,34.2072,50.38479,0.0027558,0.10541704,358.0984,11/21.0/2025,2000,H 8.81,0.15
# From MPO639791
2000 OH67,e,5.6284,77.9563,204.7676,44.19268,0.0033549,0.01638259,65.7310,11/21.0/2025,2000,H 6.61,0.15
# From MPO713660
2000 OP67,e,0.7522,182.5186,78.1359,43.69750,0.0034121,0.18721597,76.4136,11/21.0/2025,2000,H 7.51,0.15
# From MPO659754
2000 PU29,e,0.7060,227.2799,133.0045,42.46478,0.0035617,0.02247655,338.8585,11/21.0/2025,2000,H 8.08,0.15
# From MPO230179
2000 PW29,e,1.7590,147.9844,85.6215,44.14090,0.0033608,0.05771788,96.8245,11/21.0/2025,2000,H 8.3,0.15
# From MPEC 2024-TO9
2000 PX29,e,6.4133,135.3730,271.3883,42.59811,0.0035450,0.05891884,298.5667,11/21.0/2025,2000,H 7.54,0.15
# From MPO241839
2000 PY29,e,0.8216,44.9845,117.1284,44.24870,0.0033485,0.05696771,184.9165,11/21.0/2025,2000,H 7.3,0.15
# From MPO 3965
2000 PZ29,e,13.7601,319.1086,358.9182,44.89958,0.0032760,0.00000000,0.0000,08/04.0/2000,2000,H 7.5,0.15
# From MPO311247
2000 PA30,e,0.4223,325.0350,290.9783,47.01439,0.0030574,0.13412017,76.6630,11/21.0/2025,2000,H 8.0,0.15
# From MPO 3965
2000 PB30,e,7.9325,131.0479,185.7496,42.49782,0.0035576,0.00000000,0.0000,08/04.0/2000,2000,H 8.1,0.15
# From MPO542777
2000 PC30,e,1.2514,71.7922,123.5643,43.07818,0.0034859,0.02839022,151.1863,11/21.0/2025,2000,H 7.6,0.15
# From MPO940202
2000 PD30,e,4.6051,330.6524,310.5425,46.52141,0.0031062,0.02027731,62.8470,11/21.0/2025,2000,H 6.97,0.15
# From MPO940202
2000 PG30,e,4.6376,130.2196,298.1428,45.07765,0.0032566,0.10553728,276.6063,11/21.0/2025,2000,H 7.63,0.15
# From MPO780967
2000 PL30,e,5.8709,326.0866,140.3282,42.03992,0.0036159,0.24070670,262.8619,11/21.0/2025,2000,H 7.32,0.15
# From MPO542777
2000 PM30,e,2.2839,129.8130,61.1312,44.00686,0.0033762,0.05610750,152.5633,11/21.0/2025,2000,H 7.9,0.15
# From MPEC 2024-TO9
2000 PN30,e,1.5162,15.8856,276.1550,44.84247,0.0032822,0.10221683,50.7030,11/21.0/2025,2000,H 7.83,0.15
# From MPO363033
2000 PQ30,e,0.7613,47.3398,179.4774,41.77634,0.0036501,0.06865761,118.5783,11/21.0/2025,2000,H 8.6,0.15
# From MPO 4979
2000 PR30,e,0.7050,315.9396,347.7599,42.32675,0.0035792,0.07462174,0.0000,08/04.0/2000,2000,H 8.1,0.15
# From MPO869192
2000 PS30,e,2.8819,76.8953,256.7467,40.18353,0.0038693,0.09821146,21.7389,11/21.0/2025,2000,H 8.75,0.15
# From MPO676501
2000 QB226,e,2.5080,19.5896,335.2434,94.91203,0.0010659,0.54833756,5.6229,11/21.0/2025,2000,H 6.55,0.15
# From MPO 4009
2000 QD226,e,2.2499,334.6717,3.8155,41.17060,0.0037310,0.00000000,0.0000,08/24.0/2000,2000,H 7.3,0.15
# From MPO 4010
2000 QF226,e,2.2533,41.0013,296.9037,46.49878,0.0031084,0.00000000,0.0000,08/24.0/2000,2000,H 8.3,0.15
# From MPO457295
2000 QH226,e,2.8050,351.0298,308.0884,39.63889,0.0039493,0.19050749,63.3676,11/21.0/2025,2000,H 9.0,0.15
# From MPO 4010
2000 QJ226,e,9.5355,153.5490,106.6062,39.39352,0.0039863,0.11386744,65.7957,08/24.0/2000,2000,H 8.1,0.15
# From MPEC 2023-Y46
2000 QL226,e,2.4927,167.5412,214.8447,43.85244,0.0033940,0.18922049,1.1810,11/21.0/2025,2000,H 8.33,0.15
# From MPO659754
2000 QN251,e,0.3441,42.7921,319.2926,42.40542,0.0035692,0.12650028,27.3081,11/21.0/2025,2000,H 7.36,0.15
# From MPO 41668
2000 QJ252,e,11.6433,344.3251,351.6853,43.23740,0.0034667,0.12343677,0.0100,08/04.0/2000,2000,H 7.6,0.15
# From MPO 41668
2000 QK252,e,7.7797,141.3575,347.4994,45.14677,0.0032491,0.19653459,180.0389,08/04.0/2000,2000,H 6.3,0.15
# From MPO 41668
2000 QO252,e,13.0972,327.5475,9.1262,45.55574,0.0032055,0.14647157,0.0158,08/04.0/2000,2000,H 7.0,0.15
# From MPO 6409
2000 SB331,e,6.2574,82.0735,336.7380,46.37904,0.0031205,0.00000000,0.0000,09/13.0/2000,2000,H 7.7,0.15
# From MPO 6409
2000 SC331,e,8.8266,223.1168,196.8714,46.47992,0.0031103,0.00000000,359.6610,09/13.0/2000,2000,H 7.9,0.15
# From MPO 6409
2000 SD331,e,2.6205,124.7785,294.3169,43.68837,0.0034131,0.00000000,0.0000,09/13.0/2000,2000,H 7.5,0.15
# From MPO 6409
2000 SE331,e,5.2068,216.5486,202.9113,43.52534,0.0034323,0.00000000,0.0000,09/13.0/2000,2000,H 7.9,0.15
# From MPO 8510
2000 SF331,e,4.0859,91.6944,327.6877,44.02004,0.0033746,0.00000000,0.1350,10/23.0/2000,2000,H 7.4,0.15
# From MPO869193
2000 SG331,e,2.3325,127.5347,193.2138,44.10377,0.0033650,0.09782341,119.4449,11/21.0/2025,2000,H 7.83,0.15
# From MPO869193
2000 SH331,e,2.7865,127.3477,123.7719,41.71204,0.0036586,0.10241012,197.9833,11/21.0/2025,2000,H 6.80,0.15
# From MPO 22669
2000 SK331,e,2.7873,105.4430,62.9012,45.46578,0.0032150,0.13607038,296.8657,11/21.0/2025,2000,H 7.9,0.15
# From MPO869193
2000 SL331,e,2.6392,147.2774,14.6303,41.55578,0.0036792,0.10838370,303.5600,11/21.0/2025,2000,H 7.22,0.15
# From MPO869193
2000 SO331,e,2.2648,172.2735,222.8271,43.54664,0.0034298,0.09612341,52.3828,11/21.0/2025,2000,H 7.24,0.15
# From MPO869193
2000 SP331,e,2.8777,128.9322,353.7262,41.36629,0.0037045,0.10223830,340.8931,11/21.0/2025,2000,H 8.03,0.15
# From MPO 22669
